NORAD_CAT_ID,OBJECT_NAME,OBJECT_TYPE,EPOCH,MEAN_MOTION,ECCENTRICITY,INCLINATION,RA_OF_ASC_NODE,ARG_OF_PERICENTER,MEAN_ANOMALY,BSTAR,MEAN_MOTION_DOT,MEAN_MOTION_DDOT,TLE_LINE0,TLE_LINE1,TLE_LINE2,SEMIMAJOR_AXIS,PERIOD,APOGEE,PERIGEE,DECAYED
52851.0,STARLINK-3809,PAYLOAD,2022-06-22 16:00:00,15.9068369,0.0040507,53.2176,20.1059,56.1934,197.7198,-0.0024951,-0.00856785,0.00022858,0 STARLINK-3809,1 52851U 22062X   22173.66667824 -.00856785  22858-3 -24951-2 0  9995,2 52851  53.2176  20.1059 0040507  56.1934 197.7198 15.90683690  1301,6678.505999999999,90.527,327.423,273.318,0.0
52851.0,STARLINK-3809,PAYLOAD,2022-06-23 06:00:00,15.89721485,0.0034644,53.2174,17.1463,57.2656,298.0114,-0.0025945,-0.0083033,0.00021407,0 STARLINK-3809,1 52851U 22062X   22174.25001157 -.00830330  21407-3 -25945-2 0  9993,2 52851  53.2174  17.1463 0034644  57.2656 298.0114 15.89721485  1397,6681.2,90.582,326.211,279.91900000000004,0.0
52851.0,STARLINK-3809,PAYLOAD,2022-06-23 14:00:01,15.89165791,0.0032827,53.2177,15.4557,57.9656,45.7682,-0.0025934,-0.00802276,0.0002002,0 STARLINK-3809,1 52851U 22062X   22174.58334491 -.00802276  20020-3 -25934-2 0  9995,2 52851  53.2177  15.4557 0032827  57.9656  45.7682 15.89165791  1448,6682.7580000000025,90.614,326.56,282.685,0.0
52851.0,STARLINK-3809,PAYLOAD,2022-06-23 22:00:00,15.88644147,0.0030062,53.2177,13.7697,57.8658,153.6594,-0.002831,-0.00845738,0.00021902,0 STARLINK-3809,1 52851U 22062X   22174.91667824 -.00845738  21902-3 -28310-2 0  9992,2 52851  53.2177  13.7697 0030062  57.8658 153.6594 15.88644147  1496,6684.22,90.643,326.1790000000001,285.991,0.0
52851.0,STARLINK-3809,PAYLOAD,2022-06-24 06:00:02,15.88103548,0.0026583,53.2174,12.0813,59.0541,259.6859,-0.0029499,-0.00850008,0.0002199,0 STARLINK-3809,1 52851U 22062X   22175.25002315 -.00850008  21990-3 -29499-2 0  9990,2 52851  53.2174  12.0813 0026583  59.0541 259.6859 15.88103548  1556,6685.736999999999,90.674,325.375,289.829,0.0
52851.0,STARLINK-3809,PAYLOAD,2022-06-24 14:00:01,15.87540288,0.0025333,53.2175,10.3952,58.8119,6.3654,-0.0028868,-0.00806703,0.00019914,0 STARLINK-3809,1 52851U 22062X   22175.58334491 -.00806703  19914-3 -28868-2 0  9994,2 52851  53.2175  10.3952 0025333  58.8119   6.3654 15.87540288  1300,6687.318,90.706,326.124,292.242,0.0
52851.0,STARLINK-3809,PAYLOAD,2022-06-24 20:00:01,15.87137292,0.0022949,53.2173,9.1337,59.4118,355.2072,-0.0029892,-0.00814595,0.00020189,0 STARLINK-3809,1 52851U 22062X   22175.83334491 -.00814595  20189-3 -29892-2 0  9994,2 52851  53.2173   9.1337 0022949  59.4118 355.2072 15.87137292  1641,6688.45,90.729,325.665,294.966,0.0
52851.0,STARLINK-3809,PAYLOAD,2022-06-24 22:00:01,15.87007419,0.0022507,53.2176,8.7131,59.2645,111.8185,-0.0030552,-0.00826417,0.00020694,0 STARLINK-3809,1 52851U 22062X   22175.91668981 -.00826417  20694-3 -30552-2 0  9999,2 52851  53.2176   8.7131 0022507  59.2645 111.8185 15.87007419  1305,6688.815,90.737,325.735,295.626,0.0
52851.0,STARLINK-3809,PAYLOAD,2022-06-25 14:00:01,15.85921975,0.0017771,53.2178,5.3468,59.7344,321.0168,-0.0032463,-0.00761333,0.0,0 STARLINK-3809,1 52851U 22062X   22176.58334491 -.00761333  00000-0 -32463-2 0  9993,2 52851  53.2178   5.3468 0017771  59.7344 321.0168 15.85921975  1767,6691.8669999999975,90.799,325.624,301.84,0.0
52851.0,STARLINK-3809,PAYLOAD,2022-06-25 22:00:00,15.85372146,0.0015237,53.2175,3.6686,58.7864,65.8545,-0.0032831,-0.00747421,0.0,0 STARLINK-3809,1 52851U 22062X   22176.91667824 -.00747421  00000-0 -32831-2 0  9990,2 52851  53.2175   3.6686 0015237  58.7864  65.8545 15.85372146  1300,6693.4140000000025,90.83,325.478,305.08,0.0
52851.0,STARLINK-3809,PAYLOAD,2022-06-26 14:00:01,15.8430468,0.0010139,53.2176,0.3103,55.2238,275.2996,-0.0036326,-0.00777305,0.0,0 STARLINK-3809,1 52851U 22062X   22177.58335648 -.00777305  00000-0 -36326-2 0  9997,2 52851  53.2176   0.3103 0010139  55.2238 275.2996 15.84304680  1924,6696.42,90.892,325.075,311.496,0.0
52851.0,STARLINK-3809,PAYLOAD,2022-06-26 22:00:00,15.83743722,0.0007964,53.2176,358.6361,50.7746,21.621,-0.0035681,-0.00744293,0.0,0 STARLINK-3809,1 52851U 22062X   22177.91667824 -.00744293  00000-0 -35681-2 0  9991,2 52851  53.2176 358.6361 0007964  50.7746  21.6210 15.83743722  1302,6698.001,90.924,325.201,314.532,0.0
52851.0,STARLINK-3809,PAYLOAD,2022-06-27 06:00:00,15.83212873,0.0005254,53.2176,356.9594,43.6223,130.0513,-0.0037718,-0.00763706,0.0,0 STARLINK-3809,1 52851U 22062X   22178.25001157 -.00763706  00000-0 -37718-2 0  9993,2 52851  53.2176 356.9594 0005254  43.6223 130.0513 15.83212873  2021,6699.499,90.954,324.884,317.844,0.0
52851.0,STARLINK-3809,PAYLOAD,2022-06-27 14:00:01,15.82681085,0.0003979,53.2176,355.2861,35.525,238.7737,-0.003974,-0.00782248,0.0,0 STARLINK-3809,1 52851U 22062X   22178.58334491 -.00782248  00000-0 -39740-2 0  9998,2 52851  53.2176 355.2861 0003979  35.5250 238.7737 15.82681085  1300,6700.999,90.985,325.531,320.198,0.0
52851.0,STARLINK-3809,PAYLOAD,2022-06-27 22:00:00,15.82127151,0.0003094,53.2173,353.6158,14.6824,359.5964,-0.003968,-0.00762272,0.0,0 STARLINK-3809,1 52851U 22062X   22178.91667824 -.00762272  00000-0 -39680-2 0  9992,2 52851  53.2173 353.6158 0003094  14.6824 359.5964 15.82127151  2136,6702.563,91.017,326.502,322.3540000000001,0.0
52851.0,STARLINK-3809,PAYLOAD,2022-06-28 14:00:01,15.81043529,0.0002898,53.2178,350.2738,12.5222,199.7557,-0.0041863,-0.0076417,0.0,0 STARLINK-3809,1 52851U 22062X   22179.58334491 -.00764170  00000-0 -41863-2 0  9992,2 52851  53.2178 350.2738 0002898  12.5222 199.7557 15.81043529  1303,6705.625,91.079,329.434,325.547,0.0
52851.0,STARLINK-3809,PAYLOAD,2022-06-28 22:00:00,15.804999,0.0002665,53.2175,348.6073,11.3152,298.9833,-0.0042792,-0.00761777,0.0,0 STARLINK-3809,1 52851U 22062X   22179.91667824 -.00761777  00000-0 -42792-2 0  9990,2 52851  53.2175 348.6073 0002665  11.3152 298.9833 15.80499900  1300,6707.163000000001,91.11,330.815,327.241,0.0
52851.0,STARLINK-3809,PAYLOAD,2022-06-29 14:00:01,15.79417602,0.0003294,53.2175,345.2734,356.5683,147.8716,-0.0045287,-0.00766775,0.0,0 STARLINK-3809,1 52851U 22062X   22180.58334491 -.00766775  00000-0 -45287-2 0  9991,2 52851  53.2175 345.2734 0003294 356.5683 147.8716 15.79417602  1308,6710.227,91.173,334.302,329.881,0.0
52851.0,STARLINK-3809,PAYLOAD,2022-06-29 22:00:00,15.78862641,0.0002164,53.2173,343.6109,275.5713,324.9376,-0.004502,-0.00744697,0.0,0 STARLINK-3809,1 52851U 22062X   22180.91667824 -.00744697  00000-0 -45020-2 0  9991,2 52851  53.2173 343.6109 0002164 275.5713 324.9376 15.78862641  1309,6711.799,91.205,335.116,332.212,0.0
52851.0,STARLINK-3809,PAYLOAD,2022-06-30 14:00:01,15.77790052,0.0001559,53.2177,340.2854,24.3382,46.3428,-0.0048721,-0.00765597,0.0,0 STARLINK-3809,1 52851U 22062X   22181.58334491 -.00765597  00000-0 -48721-2 0  9999,2 52851  53.2177 340.2854 0001559  24.3382  46.3428 15.77790052  1300,6714.84,91.267,337.7519999999999,335.659,0.0
52851.0,STARLINK-3809,PAYLOAD,2022-06-30 22:00:00,15.77241815,0.0001234,53.2173,338.6264,60.394,104.3982,-0.0049214,-0.0075533999999999,0.0,0 STARLINK-3809,1 52851U 22062X   22181.91667824 -.00755340  00000-0 -49214-2 0  9998,2 52851  53.2173 338.6264 0001234  60.3940 104.3982 15.77241815  1300,6716.396,91.299,339.09,337.43300000000005,0.0
52851.0,STARLINK-3809,PAYLOAD,2022-07-01 14:00:01,15.76161515,0.0001199,53.2174,335.3089,53.1665,297.8891,-0.0052258,-0.00763565,0.0,0 STARLINK-3809,1 52851U 22062X   22182.58334491 -.00763565  00000-0 -52258-2 0  9993,2 52851  53.2174 335.3089 0001199  53.1665 297.8891 15.76161515  1308,6719.465,91.361,342.136,340.524,0.0
52851.0,STARLINK-3809,PAYLOAD,2022-07-01 22:00:00,15.75616972,0.0001117,53.2172,333.654,61.4649,21.7449,-0.0053204,-0.00759243,0.0,0 STARLINK-3809,1 52851U 22062X   22182.91667824 -.00759243  00000-0 -53204-2 0  9999,2 52851  53.2172 333.6540 0001117  61.4649  21.7449 15.75616972  2768,6721.013000000001,91.393,343.629,342.1269999999999,0.0
52851.0,STARLINK-3809,PAYLOAD,2022-07-02 14:00:01,15.74532344,0.0001416999999999,53.2177,330.3448,45.6196,219.9435,-0.0055876999999999,-0.00760275,0.0,0 STARLINK-3809,1 52851U 22062X   22183.58334491 -.00760275  00000-0 -55877-2 0  9999,2 52851  53.2177 330.3448 0001417  45.6196 219.9435 15.74532344  1302,6724.099,91.456,346.917,345.011,0.0
52851.0,STARLINK-3809,PAYLOAD,2022-07-02 22:00:00,15.73958975,0.0001098,53.2172,328.6935,61.0173,294.7501,-0.0051578,-0.00690169,0.0,0 STARLINK-3809,1 52851U 22062X   22183.91667824 -.00690169  00000-0 -51578-2 0  9993,2 52851  53.2172 328.6935 0001098  61.0173 294.7501 15.73958975  2925,6725.732,91.489,348.336,346.8590000000001,0.0
52851.0,STARLINK-3809,PAYLOAD,2022-07-03 14:00:01,15.7320235,0.0001539,53.2174,325.3921,41.8763,132.4917,2.7678e-05,3.266e-05,0.0,0 STARLINK-3809,1 52851U 22062X   22184.58334491  .00003266  00000-0  27678-4 0  9998,2 52851  53.2174 325.3921 0001539  41.8763 132.4917 15.73202350  3027,6727.888000000001,91.533,350.789,348.718,0.0
52851.0,STARLINK-3809,PAYLOAD,2022-07-03 22:00:00,15.73267847,0.0001551999999999,53.2153,323.7429,39.1673,224.1325,0.000109,0.00014748,0.0,0 STARLINK-3809,1 52851U 22062X   22184.91667824  .00014748  00000-0  10900-3 0  9990,2 52851  53.2153 323.7429 0001552  39.1673 224.1325 15.73267847  3084,6727.7019999999975,91.529,350.611,348.523,0.0
52851.0,STARLINK-3809,PAYLOAD,2022-07-04 06:00:00,15.73233413,0.0001476,53.2156,322.0911,47.2497,305.0579,-0.00021575,-0.00030832,0.0,0 STARLINK-3809,1 52851U 22062X   22185.25001157 -.00030832  00000-0 -21575-3 0  9993,2 52851  53.2156 322.0911 0001476  47.2497 305.0579 15.73233413  3132,6727.8,91.531,350.658,348.672,0.0
52851.0,STARLINK-3809,PAYLOAD,2022-07-04 14:00:01,15.73195562,0.0001591,53.2156,320.4431,42.3096,38.9545,-0.00017795,-0.00025515,0.0,0 STARLINK-3809,1 52851U 22062X   22185.58334491 -.00025515  00000-0 -17795-3 0  9990,2 52851  53.2156 320.4431 0001591  42.3096  38.9545 15.73195562  1304,6727.908,91.533,350.843,348.702,0.0
